INTELSAT 902 (IS-902)   
1 26900U 01039A   26115.84231255 -.00000292  00000+0  00000+0 0  9997
2 26900   5.9865  72.4073 0004523 319.1985  75.3869  1.00271152 90179
INTELSAT 904 (IS-904)   
1 27380U 02007A   26115.70344657 -.00000235  00000+0  00000+0 0  9999
2 27380   6.7919  69.8016 0007682 338.1492  27.5120  1.00269882 51242
DIRECTV 5 (TEMPO 1)     
1 27426U 02023A   26115.90176613 -.00000067  00000+0  00000+0 0  9998
2 27426   4.7467  75.9436 0003432 320.3175  32.1782  1.00271768 87592
INTELSAT 905 (IS-905)   
1 27438U 02027A   26115.61368620  .00000084  00000+0  00000+0 0  9992
2 27438   6.6244  70.4202 0003377 337.2769 249.6576  1.00273059 50832
GALAXY 3C (G-3C)        
1 27445U 02030A   26115.90479948 -.00000163  00000+0  00000+0 0  9991
2 27445   3.5969  78.6733 0001504  25.2579 340.8439  1.00271485 45974
INTELSAT 906 (IS-906)   
1 27513U 02041A   26115.97961416  .00000004  00000+0  00000+0 0  9995
2 27513   5.6715  73.5477 0004026 334.9355 222.3282  1.00270477 86509
GALAXY 13 (HORIZONS-1)  
1 27954U 03044A   26115.72197514  .00000120  00000+0  00000+0 0  9990
2 27954   1.2837  84.4796 0002210 312.8777 286.2841  1.00272991 46044
INTELSAT 10-02          
1 28358U 04022A   26115.84489189  .00000000  00000+0  00000+0 0  9998
2 28358   0.0161  79.7429 0001312 344.1658  93.0742  1.00267814 80037
DIRECTV 8               
1 28659U 05019A   26115.89994612  .00000000  00000+0  00000+0 0  9996
2 28659   0.0148 228.6540 0003178 172.4887  17.6936  1.00270778 76544
GALAXY 28 (G-28)        
1 28702U 05022A   26115.91823286 -.00000212  00000+0  00000+0 0  9996
2 28702   3.1666  79.5550 0003124 316.5864 121.2344  1.00266671 51458
GALAXY 16 (G-16)        
1 29236U 06023A   26115.90401948 -.00000141  00000+0  00000+0 0  9998
2 29236   0.0225 230.2480 0003069 177.2738  32.8397  1.00274180 72447
DIRECTV 9S              
1 29494U 06043A   26115.90358613 -.00000125  00000+0  00000+0 0  9998
2 29494   2.2878  81.4982 0004146 328.5553  27.9461  1.00271539 50850
GALAXY 17 (G-17)        
1 31307U 07016B   26115.86780985 -.00000217  00000+0  00000+0 0  9993
2 31307   2.8419  80.5295 0004246 328.0353  32.7242  1.00271044 69283
INTELSAT 11 (IS-11)     
1 32253U 07044B   26115.78025895 -.00000196  00000+0  00000+0 0  9994
2 32253   3.4311  79.2796 0001491 223.0503 188.5547  0.99052743 67931
HORIZONS-2              
1 32388U 07063B   26115.86780985 -.00000265  00000+0  00000+0 0  9998
2 32388   2.4692  81.2387 0003394 320.4992  50.7559  1.00272690 67298
DIRECTV 11              
1 32729U 08013A   26115.90393281 -.00000139  00000+0  00000+0 0  9997
2 32729   0.0123 103.1541 0000298 257.5013  79.4809  1.00271367 45067
GALAXY 18 (G-18)        
1 32951U 08024A   26115.89916612  .00000012  00000+0  00000+0 0  9992
2 32951   0.0191 262.4244 0003186 136.6293  15.5515  1.00271604 45322
