[{"OBJECT_NAME":"INTELSAT 902 (IS-902)","OBJECT_ID":"2001-039A","EPOCH":"2026-04-25T20:12:55.804320","MEAN_MOTION":1.00271152,"ECCENTRICITY":0.00045232,"INCLINATION":5.9865,"RA_OF_ASC_NODE":72.4073,"ARG_OF_PERICENTER":319.1985,"MEAN_ANOMALY":75.3869,"EPHEMERIS_TYPE":0,"CLASSIFICATION_TYPE":"U","NORAD_CAT_ID":26900,"ELEMENT_SET_NO":999,"REV_AT_EPOCH":9017,"BSTAR":0,"MEAN_MOTION_DOT":-2.92e-6,"MEAN_MOTION_DDOT":0},{"OBJECT_NAME":"INTELSAT 904 (IS-904)","OBJECT_ID":"2002-007A","EPOCH":"2026-04-25T16:52:57.783648","MEAN_MOTION":1.00269882,"ECCENTRICITY":0.0007682,"INCLINATION":6.7919,"RA_OF_ASC_NODE":69.8016,"ARG_OF_PERICENTER":338.1492,"MEAN_ANOMALY":27.512,"EPHEMERIS_TYPE":0,"CLASSIFICATION_TYPE":"U","NORAD_CAT_ID":27380,"ELEMENT_SET_NO":999,"REV_AT_EPOCH":5124,"BSTAR":0,"MEAN_MOTION_DOT":-2.35e-6,"MEAN_MOTION_DDOT":0},{"OBJECT_NAME":"DIRECTV 5 (TEMPO 1)","OBJECT_ID":"2002-023A","EPOCH":"2026-04-25T21:38:32.593632","MEAN_MOTION":1.00271768,"ECCENTRICITY":0.00034327,"INCLINATION":4.7467,"RA_OF_ASC_NODE":75.9436,"ARG_OF_PERICENTER":320.3175,"MEAN_ANOMALY":32.1782,"EPHEMERIS_TYPE":0,"CLASSIFICATION_TYPE":"U","NORAD_CAT_ID":27426,"ELEMENT_SET_NO":999,"REV_AT_EPOCH":8759,"BSTAR":0,"MEAN_MOTION_DOT":-6.7e-7,"MEAN_MOTION_DDOT":0},{"OBJECT_NAME":"INTELSAT 905 (IS-905)","OBJECT_ID":"2002-027A","EPOCH":"2026-04-25T14:43:42.487680","MEAN_MOTION":1.00273059,"ECCENTRICITY":0.00033772,"INCLINATION":6.6244,"RA_OF_ASC_NODE":70.4202,"ARG_OF_PERICENTER":337.2769,"MEAN_ANOMALY":249.6576,"EPHEMERIS_TYPE":0,"CLASSIFICATION_TYPE":"U","NORAD_CAT_ID":27438,"ELEMENT_SET_NO":999,"REV_AT_EPOCH":5083,"BSTAR":0,"MEAN_MOTION_DOT":8.4e-7,"MEAN_MOTION_DDOT":0},{"OBJECT_NAME":"GALAXY 3C (G-3C)","OBJECT_ID":"2002-030A","EPOCH":"2026-04-25T21:42:54.675072","MEAN_MOTION":1.00271485,"ECCENTRICITY":0.00015044,"INCLINATION":3.5969,"RA_OF_ASC_NODE":78.6733,"ARG_OF_PERICENTER":25.2579,"MEAN_ANOMALY":340.8439,"EPHEMERIS_TYPE":0,"CLASSIFICATION_TYPE":"U","NORAD_CAT_ID":27445,"ELEMENT_SET_NO":999,"REV_AT_EPOCH":4597,"BSTAR":0,"MEAN_MOTION_DOT":-1.63e-6,"MEAN_MOTION_DDOT":0},{"OBJECT_NAME":"INTELSAT 906 (IS-906)","OBJECT_ID":"2002-041A","EPOCH":"2026-04-25T23:30:38.663424","MEAN_MOTION":1.00270477,"ECCENTRICITY":0.00040266,"INCLINATION":5.6715,"RA_OF_ASC_NODE":73.5477,"ARG_OF_PERICENTER":334.9355,"MEAN_ANOMALY":222.3282,"EPHEMERIS_TYPE":0,"CLASSIFICATION_TYPE":"U","NORAD_CAT_ID":27513,"ELEMENT_SET_NO":999,"REV_AT_EPOCH":8650,"BSTAR":0,"MEAN_MOTION_DOT":4.0e-8,"MEAN_MOTION_DDOT":0},{"OBJECT_NAME":"GALAXY 13 (HORIZONS-1)","OBJECT_ID":"2003-044A","EPOCH":"2026-04-25T17:19:38.652096","MEAN_MOTION":1.00272991,"ECCENTRICITY":0.00022105,"INCLINATION":1.2837,"RA_OF_ASC_NODE":84.4796,"ARG_OF_PERICENTER":312.8777,"MEAN_ANOMALY":286.2841,"EPHEMERIS_TYPE":0,"CLASSIFICATION_TYPE":"U","NORAD_CAT_ID":27954,"ELEMENT_SET_NO":999,"REV_AT_EPOCH":4604,"BSTAR":0,"MEAN_MOTION_DOT":1.2e-6,"MEAN_MOTION_DDOT":0},{"OBJECT_NAME":"INTELSAT 10-02","OBJECT_ID":"2004-022A","EPOCH":"2026-04-25T20:16:38.659296","MEAN_MOTION":1.00267814,"ECCENTRICITY":0.00013124,"INCLINATION":0.0161,"RA_OF_ASC_NODE":79.7429,"ARG_OF_PERICENTER":344.1658,"MEAN_ANOMALY":93.0742,"EPHEMERIS_TYPE":0,"CLASSIFICATION_TYPE":"U","NORAD_CAT_ID":28358,"ELEMENT_SET_NO":999,"REV_AT_EPOCH":8003,"BSTAR":0,"MEAN_MOTION_DOT":0,"MEAN_MOTION_DDOT":0},{"OBJECT_NAME":"DIRECTV 8","OBJECT_ID":"2005-019A","EPOCH":"2026-04-25T21:35:55.344768","MEAN_MOTION":1.00270778,"ECCENTRICITY":0.00031783,"INCLINATION":0.0148,"RA_OF_ASC_NODE":228.654,"ARG_OF_PERICENTER":172.4887,"MEAN_ANOMALY":17.6936,"EPHEMERIS_TYPE":0,"CLASSIFICATION_TYPE":"U","NORAD_CAT_ID":28659,"ELEMENT_SET_NO":999,"REV_AT_EPOCH":7654,"BSTAR":0,"MEAN_MOTION_DOT":0,"MEAN_MOTION_DDOT":0},{"OBJECT_NAME":"GALAXY 28 (G-28)","OBJECT_ID":"2005-022A","EPOCH":"2026-04-25T22:02:15.319104","MEAN_MOTION":1.00266671,"ECCENTRICITY":0.00031246,"INCLINATION":3.1666,"RA_OF_ASC_NODE":79.555,"ARG_OF_PERICENTER":316.5864,"MEAN_ANOMALY":121.2344,"EPHEMERIS_TYPE":0,"CLASSIFICATION_TYPE":"U","NORAD_CAT_ID":28702,"ELEMENT_SET_NO":999,"REV_AT_EPOCH":5145,"BSTAR":0,"MEAN_MOTION_DOT":-2.12e-6,"MEAN_MOTION_DDOT":0},{"OBJECT_NAME":"GALAXY 16 (G-16)","OBJECT_ID":"2006-023A","EPOCH":"2026-04-25T21:41:47.283072","MEAN_MOTION":1.0027418,"ECCENTRICITY":0.00030695,"INCLINATION":0.0225,"RA_OF_ASC_NODE":230.248,"ARG_OF_PERICENTER":177.2738,"MEAN_ANOMALY":32.8397,"EPHEMERIS_TYPE":0,"CLASSIFICATION_TYPE":"U","NORAD_CAT_ID":29236,"ELEMENT_SET_NO":999,"REV_AT_EPOCH":7244,"BSTAR":0,"MEAN_MOTION_DOT":-1.41e-6,"MEAN_MOTION_DDOT":0},{"OBJECT_NAME":"DIRECTV 9S","OBJECT_ID":"2006-043A","EPOCH":"2026-04-25T21:41:09.841632","MEAN_MOTION":1.00271539,"ECCENTRICITY":0.00041461,"INCLINATION":2.2878,"RA_OF_ASC_NODE":81.4982,"ARG_OF_PERICENTER":328.5553,"MEAN_ANOMALY":27.9461,"EPHEMERIS_TYPE":0,"CLASSIFICATION_TYPE":"U","NORAD_CAT_ID":29494,"ELEMENT_SET_NO":999,"REV_AT_EPOCH":5085,"BSTAR":0,"MEAN_MOTION_DOT":-1.25e-6,"MEAN_MOTION_DDOT":0},{"OBJECT_NAME":"GALAXY 17 (G-17)","OBJECT_ID":"2007-016B","EPOCH":"2026-04-25T20:49:38.771040","MEAN_MOTION":1.00271044,"ECCENTRICITY":0.00042467,"INCLINATION":2.8419,"RA_OF_ASC_NODE":80.5295,"ARG_OF_PERICENTER":328.0353,"MEAN_ANOMALY":32.7242,"EPHEMERIS_TYPE":0,"CLASSIFICATION_TYPE":"U","NORAD_CAT_ID":31307,"ELEMENT_SET_NO":999,"REV_AT_EPOCH":6928,"BSTAR":0,"MEAN_MOTION_DOT":-2.17e-6,"MEAN_MOTION_DDOT":0},{"OBJECT_NAME":"INTELSAT 11 (IS-11)","OBJECT_ID":"2007-044B","EPOCH":"2026-04-25T18:43:34.373280","MEAN_MOTION":0.99052743,"ECCENTRICITY":0.00014919,"INCLINATION":3.4311,"RA_OF_ASC_NODE":79.2796,"ARG_OF_PERICENTER":223.0503,"MEAN_ANOMALY":188.5547,"EPHEMERIS_TYPE":0,"CLASSIFICATION_TYPE":"U","NORAD_CAT_ID":32253,"ELEMENT_SET_NO":999,"REV_AT_EPOCH":6793,"BSTAR":0,"MEAN_MOTION_DOT":-1.96e-6,"MEAN_MOTION_DDOT":0},{"OBJECT_NAME":"HORIZONS-2","OBJECT_ID":"2007-063B","EPOCH":"2026-04-25T20:49:38.771040","MEAN_MOTION":1.0027269,"ECCENTRICITY":0.0003394,"INCLINATION":2.4692,"RA_OF_ASC_NODE":81.2387,"ARG_OF_PERICENTER":320.4992,"MEAN_ANOMALY":50.7559,"EPHEMERIS_TYPE":0,"CLASSIFICATION_TYPE":"U","NORAD_CAT_ID":32388,"ELEMENT_SET_NO":999,"REV_AT_EPOCH":6729,"BSTAR":0,"MEAN_MOTION_DOT":-2.65e-6,"MEAN_MOTION_DDOT":0},{"OBJECT_NAME":"DIRECTV 11","OBJECT_ID":"2008-013A","EPOCH":"2026-04-25T21:41:39.794784","MEAN_MOTION":1.00271367,"ECCENTRICITY":2.981e-5,"INCLINATION":0.0123,"RA_OF_ASC_NODE":103.1541,"ARG_OF_PERICENTER":257.5013,"MEAN_ANOMALY":79.4809,"EPHEMERIS_TYPE":0,"CLASSIFICATION_TYPE":"U","NORAD_CAT_ID":32729,"ELEMENT_SET_NO":999,"REV_AT_EPOCH":4506,"BSTAR":0,"MEAN_MOTION_DOT":-1.39e-6,"MEAN_MOTION_DDOT":0},{"OBJECT_NAME":"GALAXY 18 (G-18)","OBJECT_ID":"2008-024A","EPOCH":"2026-04-25T21:34:47.952768","MEAN_MOTION":1.00271604,"ECCENTRICITY":0.00031868,"INCLINATION":0.0191,"RA_OF_ASC_NODE":262.4244,"ARG_OF_PERICENTER":136.6293,"MEAN_ANOMALY":15.5515,"EPHEMERIS_TYPE":0,"CLASSIFICATION_TYPE":"U","NORAD_CAT_ID":32951,"ELEMENT_SET_NO":999,"REV_AT_EPOCH":4532,"BSTAR":0,"MEAN_MOTION_DOT":1.2e-7,"MEAN_MOTION_DDOT":0}]
